{
    "links": {
        "self": "http://www.neowsapp.com/rest/v1/neo/54049795?api_key=iIulBulltgU6a56xZRHN4H3l9WmuAYTsLGpBGhQ2"
    },
    "id": "54049795",
    "neo_reference_id": "54049795",
    "name": "(2020 OZ4)",
    "designation": "2020 OZ4",
    "nasa_jpl_url": "http://ssd.jpl.nasa.gov/sbdb.cgi?sstr=54049795",
    "absolute_magnitude_h": 24.31,
    "estimated_diameter": {
        "kilometers": {
            "estimated_diameter_min": 0.0365220357,
            "estimated_diameter_max": 0.0816657545
        },
        "meters": {
            "estimated_diameter_min": 36.5220356958,
            "estimated_diameter_max": 81.6657544926
        },
        "miles": {
            "estimated_diameter_min": 0.0226937338,
            "estimated_diameter_max": 0.0507447315
        },
        "feet": {
            "estimated_diameter_min": 119.8229555923,
            "estimated_diameter_max": 267.9322739694
        }
    },
    "is_potentially_hazardous_asteroid": false,
    "close_approach_data": [
        {
            "close_approach_date": "2020-08-16",
            "close_approach_date_full": "2020-Aug-16 04:43",
            "epoch_date_close_approach": 1597552980000,
            "relative_velocity": {
                "kilometers_per_second": "7.993157195",
                "kilometers_per_hour": "28775.3659018794",
                "miles_per_hour": "17879.8933294206"
            },
            "miss_distance": {
                "astronomical": "0.1242698202",
                "lunar": "48.3409600578",
                "kilometers": "18590500.407202974",
                "miles": "11551601.2981660812"
            },
            "orbiting_body": "Earth"
        },
        {
            "close_approach_date": "2159-10-15",
            "close_approach_date_full": "2159-Oct-15 13:53",
            "epoch_date_close_approach": 5989125180000,
            "relative_velocity": {
                "kilometers_per_second": "17.2734550881",
                "kilometers_per_hour": "62184.4383172129",
                "miles_per_hour": "38638.9916866038"
            },
            "miss_distance": {
                "astronomical": "0.4775771893",
                "lunar": "185.7775266377",
                "kilometers": "71444530.279866791",
                "miles": "44393572.5585960758"
            },
            "orbiting_body": "Earth"
        }
    ],
    "orbital_data": {
        "orbit_id": "4",
        "orbit_determination_date": "2020-08-22 06:35:07",
        "first_observation_date": "2020-07-22",
        "last_observation_date": "2020-08-22",
        "data_arc_in_days": 31,
        "observations_used": 21,
        "orbit_uncertainty": "7",
        "minimum_orbit_intersection": ".104553",
        "jupiter_tisserand_invariant": "3.493",
        "epoch_osculation": "2459000.5",
        "eccentricity": ".4984509416927851",
        "semi_major_axis": "2.187685301545804",
        "inclination": "7.691695725915253",
        "ascending_node_longitude": "312.2793655143191",
        "orbital_period": "1181.886304733392",
        "perihelion_distance": "1.097231502862834",
        "perihelion_argument": "30.28235278051137",
        "aphelion_distance": "3.278139100228775",
        "perihelion_time": "2459092.368539934397",
        "mean_anomaly": "332.017042380533",
        "mean_motion": ".3045978268452889",
        "equinox": "J2000",
        "orbit_class": {
            "orbit_class_type": "AMO",
            "orbit_class_description": "Near-Earth asteroid orbits similar to that of 1221 Amor",
            "orbit_class_range": "1.017 AU < q (perihelion) < 1.3 AU"
        }
    },
    "is_sentry_object": false
}